UNKNOWN                 
1 81775U          26093.54152607  .00009426  00000+0  28325-2 0  9990
2 81775  82.9175 131.5109 0014302 248.4298 111.5372 14.42535610641382
UNKNOWN                 
1 81779U          26093.23242914  .00002370  00000+0  16394+0 0  9992
2 81779  54.4618  43.4370 1439520 149.0612 220.3591  9.33761831490736
UNKNOWN                 
1 81792U          26094.99810343  .00002817  00000+0  99726-3 0  9998
2 81792  65.8317 201.2657 0894902 232.4582 119.1857 13.11456183 94884
UNKNOWN                 
1 81812U          26095.27739911  .00007182  00000+0  45714-1 0  9990
2 81812 103.7971  26.5535 0328843  40.7660 321.7513 12.38640937554613
UNKNOWN                 
1 81816U          26095.16264183  .00001867  00000+0  14118-2 0  9995
2 81816  66.2390  13.2655 0168642 182.6023 177.4192 13.89819653625101
UNKNOWN                 
1 81819U          26094.22617393  .00000987  00000+0  69734-2 0  9995
2 81819 102.1686 197.9690 0035449 256.9002 102.8108 12.47896904562040
UNKNOWN                 
1 81824U          26095.20824829  .00005708  00000+0  19342-2 0  9990
2 81824  65.8441  27.1497 0048883 280.6256  78.9335 14.36771529640889
UNKNOWN                 
1 81833U          26095.49583279  .00000519  00000+0  18519-2 0  9992
2 81833  90.2482   5.4256 0028555  83.6618 276.7751 12.93784267467224
UNKNOWN                 
1 81838U          26093.11241755  .00008715  00000+0  18607-2 0  9998
2 81838  67.7608 334.7650 0043546 264.8935 246.6464 14.58622573649566
UNKNOWN                 
1 81844U          26094.98059733  .00009314  00000+0  32313-2 0  9990
2 81844  82.9133 189.6635 0062145 164.4391 195.8728 14.34406221639114
UNKNOWN                 
1 81845U          26095.26434804  .00003212  00000+0  35166-3 0  9990
2 81845  97.6785 283.2607 0085293 291.6461 245.9413 14.85861372666375
UNKNOWN                 
1 81864U          26092.48608821  .00001380  00000+0  53620-3 0  9993
2 81864  65.6702 167.8953 0770112 325.4344  29.8826 13.32817256565590
UNKNOWN                 
1 81865U          26095.02839227  .00001334  00000+0  10841-2 0  9999
2 81865  82.8024 301.2028 0062815  42.3290 109.5736 13.88336729624263
UNKNOWN                 
1 81893U          26093.92029569  .00001395  00000+0  14617-2 0  9999
2 81893 100.0579  88.4950 0020689 345.5855  14.4701 13.76971177619515
UNKNOWN                 
1 81899U          26095.60502540  .00002535  00000+0  59265-2 0  9992
2 81899 102.4128 222.9389 0169722 331.9289  27.2747 13.20590489594011
UNKNOWN                 
1 81921U          26080.02815735  .00000337  00000+0  17021-3 0  9994
2 81921  65.7092 189.9770 0843178  71.9683 297.1320 13.15483007 38713
UNKNOWN                 
1 81946U          26095.54701473  .00000173  00000+0  72954-3 0  9991
2 81946  66.4189 293.7002 0679311 296.6297  86.4529 12.42655159562024
